[{"OBJECT_NAME":"GEESAT-1 04","OBJECT_ID":"2022-058D","EPOCH":"2026-03-09T22:25:22.027008","MEAN_MOTION":14.810114,"ECCENTRICITY":0.00100038,"INCLINATION":50.0041,"RA_OF_ASC_NODE":301.1948,"ARG_OF_PERICENTER":127.9517,"MEAN_ANOMALY":232.2326,"EPHEMERIS_TYPE":0,"CLASSIFICATION_TYPE":"U","NORAD_CAT_ID":52788,"ELEMENT_SET_NO":999,"REV_AT_EPOCH":20521,"BSTAR":0.00036323444,"MEAN_MOTION_DOT":2.624e-5,"MEAN_MOTION_DDOT":0},{"OBJECT_NAME":"TITAN 3C TRANSTAGE DEB","OBJECT_ID":"1965-082KX","EPOCH":"2026-03-09T11:54:53.227296","MEAN_MOTION":14.73912767,"ECCENTRICITY":0.00329824,"INCLINATION":32.0547,"RA_OF_ASC_NODE":224.9569,"ARG_OF_PERICENTER":79.7996,"MEAN_ANOMALY":324.1117,"EPHEMERIS_TYPE":0,"CLASSIFICATION_TYPE":"U","NORAD_CAT_ID":2799,"ELEMENT_SET_NO":999,"REV_AT_EPOCH":14143,"BSTAR":0.00030302959,"MEAN_MOTION_DOT":2.085e-5,"MEAN_MOTION_DDOT":0}]
